OBJECT_NAME,OBJECT_ID,EPOCH,MEAN_MOTION,ECCENTRICITY,INCLINATION,RA_OF_ASC_NODE,ARG_OF_PERICENTER,MEAN_ANOMALY,EPHEMERIS_TYPE,CLASSIFICATION_TYPE,NORAD_CAT_ID,ELEMENT_SET_NO,REV_AT_EPOCH,BSTAR,MEAN_MOTION_DOT,MEAN_MOTION_DDOT
STARLINK-32702,2024-251A,2026-07-19T22:02:17.486016,15.34071558,.00108595,53.1599,78.2453,303.7033,56.2934,0,U,62432,999,8823,.73949014E-1,.2787114E-1,0
STARLINK-32712,2024-251B,2026-07-19T22:22:37.518816,15.30208961,.00016978,53.1591,81.1682,100.8046,259.3146,0,U,62433,999,8819,.43835094E-3,.12649E-3,0
STARLINK-32674,2024-251C,2026-07-19T22:40:10.819488,15.34401206,.00009777,53.1567,79.8343,81.2286,278.8827,0,U,62434,999,8821,.28256125E-3,.9183E-4,0
STARLINK-32711,2024-251D,2026-07-19T22:18:04.133664,15.30198055,.00011803,53.1589,81.1506,89.5703,270.5433,0,U,62435,999,8819,.20948187E-3,.585E-4,0
STARLINK-32697,2024-251E,2026-07-19T23:33:53.150688,15.30201712,.00012098,53.1592,80.7725,95.0439,265.0700,0,U,62436,999,8820,.24754469E-3,.698E-4,0
STARLINK-32693,2024-251F,2026-07-19T23:06:36.303552,15.34407436,.00012146,53.1584,77.7441,103.2056,256.9082,0,U,62437,999,8824,.48547216E-3,.16065E-3,0
STARLINK-32721,2024-251G,2026-07-19T23:01:23.348928,15.34398531,.00011791,53.1587,79.9215,92.0264,268.0873,0,U,62438,999,8815,.36349612E-3,.11924E-3,0
STARLINK-32709,2024-251H,2026-07-19T23:07:27.030720,15.34403060,.00011905,53.1585,79.9539,83.8592,276.2547,0,U,62439,999,8821,.70174842E-3,.2341E-3,0
STARLINK-32689,2024-251J,2026-07-20T01:56:51.621792,15.34402302,.00011832,53.1584,79.2610,98.3546,261.7591,0,U,62440,999,8823,.36811432E-3,.12082E-3,0
STARLINK-32724,2024-251K,2026-07-19T22:43:13.656576,15.34374436,.00006829,53.1571,79.8515,110.5390,249.5686,0,U,62441,999,8805,.1637448E-3,.5156E-4,0
STARLINK-32291,2024-251L,2026-07-19T23:38:26.431296,15.30208274,.00013334,53.1593,80.7889,89.4727,270.6426,0,U,62442,999,8789,.23742991E-3,.6681E-4,0
STARLINK-32736,2024-251M,2026-07-19T23:49:05.123424,15.30196788,.00014974,53.1581,80.8363,69.0421,291.0740,0,U,62443,999,8804,.20281158E-3,.5651E-4,0
STARLINK-32737,2024-251N,2026-07-20T00:46:28.516800,15.34398652,.00015124,53.1597,77.5384,94.3593,265.7583,0,U,62444,999,8825,.3402858E-3,.11137E-3,0
STARLINK-32683,2024-251P,2026-07-19T22:46:14.368224,15.34406922,.00012991,53.1584,79.8544,97.6180,262.4970,0,U,62445,999,8821,.29246125E-3,.952E-4,0
STARLINK-32726,2024-251Q,2026-07-19T21:18:30.302208,15.34409480,.00012616,53.1585,80.1891,75.8593,284.2549,0,U,62446,999,8789,.42292449E-3,.13944E-3,0
STARLINK-32719,2024-251S,2026-07-19T22:16:02.739072,15.34399954,.00015931,53.1598,80.2902,95.2514,264.8671,0,U,62448,999,8803,.33262046E-3,.10878E-3,0
STARLINK-32723,2024-251T,2026-07-19T21:00:19.484064,15.34396516,.00012297,53.1589,80.1106,91.3816,268.7328,0,U,62449,999,8804,.18113553E-3,.5748E-4,0
STARLINK-32722,2024-251U,2026-07-19T23:10:28.685856,15.34399077,.0001326,53.1587,79.9580,83.1967,276.9186,0,U,62450,999,8784,.19612446E-3,.6255E-4,0
STARLINK-32720,2024-251V,2026-07-19T22:55:20.047296,15.34435971,.00012766,53.1590,79.8982,69.5677,290.5463,0,U,62451,999,8784,.70581968E-3,.23573E-3,0
STARLINK-32656,2024-251W,2026-07-19T22:58:21.584064,15.34399636,.00011285,53.1570,79.9045,87.8299,272.2833,0,U,62452,999,8805,.38805609E-3,.12757E-3,0
STARLINK-32690,2024-251X,2026-07-19T21:39:42.776352,15.34390647,.00012519,53.1582,80.2803,96.2691,263.8454,0,U,62453,999,8782,.34696488E-3,.11361E-3,0
STARLINK-11518 [DTC],2024-254A,2026-07-19T22:07:56.115264,15.70949594,.00018508,43.0000,146.3182,240.4646,119.6037,0,U,62462,999,9020,.12431796E-2,.162985E-2,0
STARLINK-11455 [DTC],2024-254B,2026-07-19T23:47:08.724480,15.70851168,.00019701,43.0002,145.9769,282.2152,77.8495,0,U,62463,999,9020,.95954461E-3,.124597E-2,0
STARLINK-11178 [DTC],2024-254D,2026-07-20T05:30:26.879328,15.70857663,.00022292,43.0017,144.3159,280.4281,79.6335,0,U,62465,999,9008,.82574458E-3,.106963E-2,0
STARLINK-11506 [DTC],2024-254E,2026-07-20T02:57:43.576128,15.70947453,.00020345,43.0025,144.3549,244.3818,115.6839,0,U,62466,999,9007,.11015924E-2,.144028E-2,0
STARLINK-11486 [DTC],2024-254F,2026-07-20T05:38:05.684064,15.70937880,.00022064,43.0011,144.3574,273.6173,86.4443,0,U,62467,999,9024,.96934154E-3,.126363E-2,0
STARLINK-11511 [DTC],2024-254G,2026-07-20T05:07:29.866368,15.70894662,.0004718,43.0026,144.1861,256.5410,103.4932,0,U,62468,999,9024,.91622368E-3,.119141E-2,0
STARLINK-11505 [DTC],2024-254H,2026-07-20T04:52:12.890208,15.70947584,.00031868,43.0040,144.1004,263.9684,96.0821,0,U,62469,999,9023,.1024849E-2,.133814E-2,0
STARLINK-11497 [DTC],2024-254J,2026-07-20T05:15:09.478080,15.70867658,.00019605,43.0021,144.2268,276.1829,83.8816,0,U,62470,999,9024,.11879911E-2,.155045E-2,0
STARLINK-11477 [DTC],2024-254K,2026-07-20T04:44:34.475136,15.70854887,.00019243,43.0014,144.0554,271.7906,88.2742,0,U,62471,999,9023,.8116269E-3,.105088E-2,0
